KUIPER-00071            
1 64818U 25151C   25216.20572974  .00188842  00000+0  52699-2 0  9996
2 64818  51.8786 196.2981 0005077 201.5305 158.5469 15.35483853  2897
KUIPER-00072            
1 64819U 25151D   25216.20931264  .00187494  00000+0  52039-2 0  9998
2 64819  51.8775 196.3158 0006827 207.3131 152.7497 15.35652153  2908
KUIPER-00073            
1 64820U 25151E   25216.20811768 -.00079052  00000+0 -22840-2 0  9995
2 64820  51.8791 196.3163 0005126 211.2140 148.8542 15.35286088  4087
KUIPER-00074            
1 64821U 25151F   25215.94694687  .00027724  00000+0  79633-3 0  9995
2 64821  51.8775 197.5573 0005200 211.0920 148.9759 15.35614214  2866
KUIPER-00075            
1 64822U 25151G   25216.20638107  .00019271  00000+0  55686-3 0  9991
2 64822  51.8788 196.3039 0004741 206.1477 153.9270 15.35651287  2906
KUIPER-00076            
1 64823U 25151H   25215.94815190  .00012756  00000+0  37479-3 0  9992
2 64823  51.8775 197.5650 0004824 213.4678 146.6004 15.35468214  2866
KUIPER-00077            
1 64824U 25151J   25216.21064828  .00024226  00000+0  70402-3 0  9996
2 64824  51.8790 196.3319 0005401 222.0914 137.9658 15.35323705  2890
KUIPER-00078            
1 64825U 25151K   25215.94988030  .00013184  00000+0  38846-3 0  9993
2 64825  51.8780 197.5796 0005584 223.0265 137.0285 15.35343051  2864
